QIANFAN-65              
1 62795U 25016L   25279.99835775  .00000064  00000+0  80867-4 0  9993
2 62795  88.9728 109.9664 0014043 169.2053 190.9402 13.50971029 38234
QIANFAN-66              
1 62796U 25016M   25280.02725368  .00000067  00000+0  84302-4 0  9997
2 62796  88.9748 109.9204 0015285 165.2815 194.8784 13.50966223 38289
QIANFAN-67              
1 62797U 25016N   25280.03123506  .00000060  00000+0  73526-4 0  9994
2 62797  88.9738 109.9521 0015052 172.0654 188.0738 13.50967770 38259
QIANFAN-68              
1 62798U 25016P   25280.02304714  .00000066  00000+0  84085-4 0  9994
2 62798  88.9743 109.9957 0015156 170.3681 189.7763 13.50970167 38233
QIANFAN-69              
1 62799U 25016Q   25279.96545862  .00000060  00000+0  74878-4 0  9990
2 62799  88.9720 109.8855 0015868 171.8896 188.2514 13.50967679 38264
QIANFAN-70              
1 62800U 25016R   25279.98180813  .00000070  00000+0  89733-4 0  9993
2 62800  88.9743 110.0082 0015745 162.2165 197.9541 13.50972670 38225
QIANFAN-71              
1 62801U 25016S   25279.97778464  .00000060  00000+0  73499-4 0  9999
2 62801  88.9735 109.9922 0015680 175.3240 184.8061 13.50971395 38229
QIANFAN-72              
1 62802U 25016T   25274.29087208  .00000084  00000+0  11481-3 0  9997
2 62802  88.9730 110.6012 0018440 200.3911 159.6505 13.49486897 37447
